IRIDIUM 155             
1 43573U 18061E   23353.28308489  .00000450  00000+0  15360-3 0  9992
2 43573  86.3967  77.3858 0002283  95.6356 264.5100 14.34218966282790
IRIDIUM 154             
1 43574U 18061F   23353.61290802  .00000434  00000+0  14793-3 0  9990
2 43574  86.3970  77.3366 0001948 101.8018 258.3397 14.34221362282895
IRIDIUM 163             
1 43575U 18061G   23352.75664542  .00000362  00000+0  12222-3 0  9996
2 43575  86.3968  77.6382 0002157 102.1274 258.0164 14.34219630282743
IRIDIUM 156             
1 43576U 18061H   23352.31266748  .00000090  00000+0  24969-4 0  9995
2 43576  86.3969  77.8300 0002149  83.9879 276.1561 14.34217774282676
IRIDIUM 164             
1 43577U 18061J   23353.34016607  .00000441  00000+0  15057-3 0  9994
2 43577  86.3969  77.4265 0001960  92.4135 267.7285 14.34218326282867
IRIDIUM 159             
1 43578U 18061K   23353.30845492  .00000125  00000+0  37588-4 0  9996
2 43578  86.3968  77.3956 0001946  96.4997 263.6421 14.34217334282828
IRIDIUM 180             
1 43922U 19002A   23353.58702195  .00000360  00000+0  12137-3 0  9990
2 43922  86.3972  14.1529 0001996  94.2438 265.8986 14.34218925258473
IRIDIUM 176             
1 43923U 19002B   23353.59562398  .00001279  00000+0  19888-3 0  9991
2 43923  86.6101  14.1808 0002397  92.4161 267.7331 14.72257074265271
IRIDIUM 168             
1 43924U 19002C   23353.58068061  .00000364  00000+0  12275-3 0  9996
2 43924  86.3975  14.2073 0002049  94.0689 266.0741 14.34219288258452
IRIDIUM 173             
1 43925U 19002D   23353.56799465  .00000380  00000+0  12851-3 0  9992
2 43925  86.3971  14.1390 0002191  95.6600 264.4846 14.34218981258433
IRIDIUM 169             
1 43926U 19002E   23353.55857066  .00000455  00000+0  14238-3 0  9998
2 43926  86.4229  45.7496 0004957  99.8654 260.3104 14.38602022259301
IRIDIUM 172             
1 43927U 19002F   23352.51512768  .00000344  00000+0  11570-3 0  9994
2 43927  86.3971  14.5843 0002089  92.4891 267.6544 14.34220609258299
IRIDIUM 175             
1 43928U 19002G   23353.52172299  .00001418  00000+0  22088-3 0  9997
2 43928  86.1510 357.5734 0002437  89.9055 270.2441 14.72248676265252
IRIDIUM 171             
1 43929U 19002H   23353.47285502  .00000345  00000+0  11621-3 0  9993
2 43929  86.3982  14.3893 0002088  90.8070 269.3365 14.34219822258426
IRIDIUM 170             
1 43930U 19002J   23353.60186927  .00001281  00000+0  19922-3 0  9993
2 43930  86.6101  14.1829 0002522  88.8478 271.3028 14.72255770265288
IRIDIUM 167             
1 43931U 19002K   23353.60605110  .00000367  00000+0  12383-3 0  9992
2 43931  86.3974  14.1428 0002071  88.7117 271.4316 14.34218066258443
IRIDIUM 181             
1 56726U 23068S   23353.60675626  .00000511  00000+0  14529-3 0  9999
2 56726  86.8632  59.1070 0002349  72.4995 287.6463 14.43579254 31089
IRIDIUM 177             
1 56727U 23068T   23353.59361726  .00001767  00000+0  22918-3 0  9996
2 56727  86.1980  41.0911 0002228  99.0306 261.1167 14.80220445 31668
IRIDIUM 174             
1 56728U 23068U   23353.58824640  .00001777  00000+0  23033-3 0  9995
2 56728  86.1986  41.1827 0002133  96.2804 263.8660 14.80230106 31661
IRIDIUM 178             
1 56729U 23068V   23353.58285345  .00001779  00000+0  23061-3 0  9992
2 56729  86.5785  50.0876 0002315  96.5166 263.6319 14.80239740 31664
IRIDIUM 179             
1 56730U 23068W   23353.57742024  .00001783  00000+0  23114-3 0  9999
2 56730  86.6793  51.9488 0002281  98.3313 261.8167 14.80237086 31663
